ALOS-2                  
1 39766U 14029A   26184.77685350  .00001480  00000+0  20504-3 0  9995
2 39766  97.9231 281.7034 0001643  89.0013 271.1387 14.79475407654039
KAZEOSAT 2              
1 40010U 14033A   26185.60889116  .00000018  00000+0  79145-5 0  9996
2 40010  97.5395  24.2993 0007003 261.8722  98.1699 14.85488912651545
HODOYOSHI-4             
1 40011U 14033B   26185.58352747  .00000925  00000+0  10561-3 0  9991
2 40011  97.5451   9.5660 0022172 246.9100 112.9780 14.88165842651390
DEIMOS-2                
1 40013U 14033D   26185.59986005  .00001725  00000+0  16791-3 0  9994
2 40013  97.5800  59.4747 0000968  81.3633 278.7697 14.93772742640329
HODOYOSHI-3             
1 40015U 14033F   26185.16049679  .00001136  00000+0  13686-3 0  9992
2 40015  97.6435 347.5195 0031488 299.9896  59.8195 14.85421912650146
SPOT 7                  
1 40053U 14034A   26185.64619465  .00000657  00000+0  14336-3 0  9994
2 40053  98.0617 247.6878 0001454  96.2029 263.9338 14.60974537639681
SKYSAT-B                
1 40072U 14037D   26185.60827116  .00001872  00000+0  21029-3 0  9995
2 40072  98.3847 145.5675 0004714 209.3892 150.7059 14.88075420648550
WORLDVIEW-3 (WV-3)      
1 40115U 14048A   26185.48395473  .00000982  00000+0  12128-3 0  9998
2 40115  97.8561 260.0778 0000435 168.7733 191.3491 14.85051410644478
GAOFEN-2                
1 40118U 14049A   26185.60870726  .00001265  00000+0  17042-3 0  9990
2 40118  98.0098 249.7990 0007419 165.8551 194.2870 14.80919720641814
YAOGAN-21               
1 40143U 14053A   26185.59938998  .00011038  00000+0  42305-3 0  9996
2 40143  97.1457 225.0896 0009042  42.2933 317.9003 15.26640524657610
YAOGAN-22               
1 40275U 14063A   26185.37322558 -.00000020  00000+0  71642-4 0  9995
2 40275 100.7748 336.9334 0006696 147.9948 212.1571 13.15531294562070
ASNARO                  
1 40298U 14070A   26185.28052601  .00008658  00000+0  40831-3 0  9996
2 40298  97.3446 260.9344 0006648 117.4549 242.7363 15.19693567646602
YAOGAN-24               
1 40310U 14072A   26185.63822860  .00000964  00000+0  14723-3 0  9997
2 40310  98.1517 323.1242 0013770 203.9789 156.0780 14.76108645626298
CBERS 4                 
1 40336U 14079A   26185.60207362  .00000370  00000+0  14328-3 0  9995
2 40336  98.3519 241.8871 0001260  51.1520 308.9779 14.35514992606454
YAOGAN-26               
1 40362U 14088A   26185.65507109  .00019412  00000+0  37171-3 0  9999
2 40362  97.0644 185.4619 0003561  25.9524 334.1905 15.48073630640409
SMAP                    
1 40376U 15003A   26185.44740038  .00000521  00000+0  10995-3 0  9995
2 40376  98.1278 192.2975 0001503  97.9514 262.1859 14.63382373610141
KOMPSAT-3A              
1 40536U 15014A   26185.62322543  .00043597  00000+0  60591-3 0  9999
2 40536  97.6890 178.2709 0057084 112.7038 248.0264 15.54917083624527
SENTINEL-2A             
1 40697U 15028A   26185.62727711  .00000306  00000+0  13356-3 0  9996
2 40697  98.5680 260.2315 0001222  95.2587 264.8736 14.30820972576220
GAOFEN-8                
1 40701U 15030A   26185.62535091  .00039215  00000+0  78455-3 0  9995
2 40701  97.6895  20.0489 0009801 128.2248 231.9884 15.46625124614143
CARBONITE 1 (CBNT-1)    
1 40718U 15032D   26185.58320361  .00001867  00000+0  23208-3 0  9990
2 40718  97.6513   2.9213 0013133 234.5332 125.4658 14.83641090591926
YAOGAN-27               
1 40878U 15040A   26185.58936679 -.00000448  00000+0 -10682-2 0  9998
2 40878 100.1162 171.2175 0008195 169.1378 190.9915 13.16069819519959
GAOFEN-9 01             
1 40894U 15047A   26185.60660084  .00001386  00000+0  17591-3 0  9997
2 40894  97.6267 220.5094 0028867  83.4929 276.9571 14.82920611582772
YAOGAN-28               
1 41026U 15064A   26185.61675606  .00011052  00000+0  41051-3 0  9990
2 41026  97.3101 323.5273 0011865 125.7359 234.4986 15.27656062593344
YAOGAN-29               
1 41038U 15069A   26185.65196402  .00000955  00000+0  12394-3 0  9992
2 41038  98.0016 214.3120 0001607  28.9884 331.1418 14.83101950573219
KENT RIDGE 1            
1 41167U 15077B   26185.51661961  .00005003  00000+0  17347-3 0  9998
2 41167  14.9787 137.0946 0008149 124.0300 236.0797 15.23237331583740
GAOFEN-4                
1 41194U 15083A   26185.59964205 -.00000323  00000+0  00000+0 0  9995
2 41194   0.4001  83.8405 0004060 115.7608  44.5839  1.00273297 38704
JASON-3                 
1 41240U 16002A   26185.63383366 -.00000010  00000+0  20827-3 0  9993
2 41240  66.0418  89.1569 0008285 271.7864  88.2206 12.87623482489497
SENTINEL-3A             
1 41335U 16011A   26185.60878007  .00000164  00000+0  85832-4 0  9993
2 41335  98.6242 252.7417 0001426  93.8118 266.3226 14.26737858540546
ZIYUAN 3-02 (ZY 3-02)   
1 41556U 16033A   26185.62046272  .00009882  00000+0  44292-3 0  9995
2 41556  97.3827 261.0596 0013029 223.2718 136.7495 15.21356513560635
CARTOSAT-2C             
1 41599U 16040A   26185.11939613  .00005560  00000+0  26711-3 0  9999
2 41599  97.4470 244.8641 0010124  78.4182 281.8189 15.19193846556288
