OBJECT_NAME,OBJECT_ID,EPOCH,MEAN_MOTION,ECCENTRICITY,INCLINATION,RA_OF_ASC_NODE,ARG_OF_PERICENTER,MEAN_ANOMALY,EPHEMERIS_TYPE,CLASSIFICATION_TYPE,NORAD_CAT_ID,ELEMENT_SET_NO,REV_AT_EPOCH,BSTAR,MEAN_MOTION_DOT,MEAN_MOTION_DDOT
ALOS-2,2014-029A,2026-07-03T18:38:40.142400,14.79475407,.00016432,97.9231,281.7034,89.0013,271.1387,0,U,39766,999,65403,.20504017E-3,.148E-4,0
KAZEOSAT 2,2014-033A,2026-07-04T14:36:48.196224,14.85488912,.00070031,97.5395,24.2993,261.8722,98.1699,0,U,40010,999,65154,.7914488E-5,.18E-6,0
HODOYOSHI-4,2014-033B,2026-07-04T14:00:16.773408,14.88165842,.00221729,97.5451,9.5660,246.9100,112.9780,0,U,40011,999,65139,.10560943E-3,.925E-5,0
DEIMOS-2,2014-033D,2026-07-04T14:23:47.908320,14.93772742,.00009685,97.5800,59.4747,81.3633,278.7697,0,U,40013,999,64032,.16790822E-3,.1725E-4,0
HODOYOSHI-3,2014-033F,2026-07-04T03:51:06.922656,14.85421912,.00314884,97.6435,347.5195,299.9896,59.8195,0,U,40015,999,65014,.13686394E-3,.1136E-4,0
SPOT 7,2014-034A,2026-07-04T15:30:31.217760,14.60974537,.00014548,98.0617,247.6878,96.2029,263.9338,0,U,40053,999,63968,.14336091E-3,.657E-5,0
SKYSAT-B,2014-037D,2026-07-04T14:35:54.628224,14.88075420,.00047145,98.3847,145.5675,209.3892,150.7059,0,U,40072,999,64855,.21028955E-3,.1872E-4,0
WORLDVIEW-3 (WV-3),2014-048A,2026-07-04T11:36:53.688672,14.85051410,.0000435,97.8561,260.0778,168.7733,191.3491,0,U,40115,999,64447,.12128091E-3,.982E-5,0
GAOFEN-2,2014-049A,2026-07-04T14:36:32.307264,14.80919720,.00074191,98.0098,249.7990,165.8551,194.2870,0,U,40118,999,64181,.17041832E-3,.1265E-4,0
YAOGAN-21,2014-053A,2026-07-04T14:23:07.294272,15.26640524,.00090428,97.1457,225.0896,42.2933,317.9003,0,U,40143,999,65761,.42305382E-3,.11038E-3,0
YAOGAN-22,2014-063A,2026-07-04T08:57:26.690112,13.15531294,.0006696,100.7748,336.9334,147.9948,212.1571,0,U,40275,999,56207,.71642336E-4,-.2E-6,0
ASNARO,2014-070A,2026-07-04T06:43:57.447264,15.19693567,.00066488,97.3446,260.9344,117.4549,242.7363,0,U,40298,999,64660,.40830903E-3,.8658E-4,0
YAOGAN-24,2014-072A,2026-07-04T15:19:02.951040,14.76108645,.00137706,98.1517,323.1242,203.9789,156.0780,0,U,40310,999,62629,.14722751E-3,.964E-5,0
CBERS 4,2014-079A,2026-07-04T14:26:59.160768,14.35514992,.00012608,98.3519,241.8871,51.1520,308.9779,0,U,40336,999,60645,.14327798E-3,.37E-5,0
YAOGAN-26,2014-088A,2026-07-04T15:43:18.142176,15.48073630,.00035613,97.0644,185.4619,25.9524,334.1905,0,U,40362,999,64040,.37171332E-3,.19412E-3,0
SMAP,2015-003A,2026-07-04T10:44:15.392832,14.63382373,.00015039,98.1278,192.2975,97.9514,262.1859,0,U,40376,999,61014,.1099477E-3,.521E-5,0
KOMPSAT-3A,2015-014A,2026-07-04T14:57:26.677152,15.54917083,.00570849,97.6890,178.2709,112.7038,248.0264,0,U,40536,999,62452,.60590942E-3,.43597E-3,0
SENTINEL-2A,2015-028A,2026-07-04T15:03:16.742304,14.30820972,.00012224,98.5680,260.2315,95.2587,264.8736,0,U,40697,999,57622,.13356151E-3,.306E-5,0
GAOFEN-8,2015-030A,2026-07-04T15:00:30.318624,15.46625124,.00098017,97.6895,20.0489,128.2248,231.9884,0,U,40701,999,61414,.78454905E-3,.39215E-3,0
CARBONITE 1 (CBNT-1),2015-032D,2026-07-04T13:59:48.791904,14.83641090,.00131335,97.6513,2.9213,234.5332,125.4658,0,U,40718,999,59192,.23208424E-3,.1867E-4,0
YAOGAN-27,2015-040A,2026-07-04T14:08:41.290656,13.16069819,.0008195,100.1162,171.2175,169.1378,190.9915,0,U,40878,999,51995,-.10682383E-2,-.448E-5,0
GAOFEN-9 01,2015-047A,2026-07-04T14:33:30.312576,14.82920611,.00288671,97.6267,220.5094,83.4929,276.9571,0,U,40894,999,58277,.17590825E-3,.1386E-4,0
YAOGAN-28,2015-064A,2026-07-04T14:48:07.723584,15.27656062,.00118652,97.3101,323.5273,125.7359,234.4986,0,U,41026,999,59334,.4105143E-3,.11052E-3,0
YAOGAN-29,2015-069A,2026-07-04T15:38:49.691328,14.83101950,.00016078,98.0016,214.3120,28.9884,331.1418,0,U,41038,999,57321,.12394211E-3,.955E-5,0
KENT RIDGE 1,2015-077B,2026-07-04T12:23:55.934304,15.23237331,.00081499,14.9787,137.0946,124.0300,236.0797,0,U,41167,999,58374,.17346651E-3,.5003E-4,0
GAOFEN-4,2015-083A,2026-07-04T14:23:29.073120,1.00273297,.000406,0.4001,83.8405,115.7608,44.5839,0,U,41194,999,3870,0,-.323E-5,0
JASON-3,2016-002A,2026-07-04T15:12:43.228224,12.87623482,.00082855,66.0418,89.1569,271.7864,88.2206,0,U,41240,999,48949,.2082725E-3,-.1E-6,0
SENTINEL-3A,2016-011A,2026-07-04T14:36:38.598048,14.26737858,.00014266,98.6242,252.7417,93.8118,266.3226,0,U,41335,999,54054,.85831808E-4,.164E-5,0
ZIYUAN 3-02 (ZY 3-02),2016-033A,2026-07-04T14:53:27.979008,15.21356513,.00130294,97.3827,261.0596,223.2718,136.7495,0,U,41556,999,56063,.44291586E-3,.9882E-4,0
CARTOSAT-2C,2016-040A,2026-07-04T02:51:55.825632,15.19193846,.00101241,97.4470,244.8641,78.4182,281.8189,0,U,41599,999,55628,.26710632E-3,.556E-4,0
